IRIDIUM 166             
1 43570U 18061B   25035.56642404  .00000530  00000+0  18205-3 0  9997
2 43570  86.3933 264.6623 0002429  85.1707 274.9766 14.34214781342079
IRIDIUM 158             
1 43571U 18061C   25035.11607743  .00000483  00000+0  16550-3 0  9994
2 43571  86.3934 264.8605 0002113  93.3272 266.8165 14.34224434341978
IRIDIUM 165             
1 43572U 18061D   25036.11822355  .00000069  00000+0  17723-4 0  9998
2 43572  86.3933 264.4781 0002135  81.6494 278.4944 14.34217408342146
IRIDIUM 155             
1 43573U 18061E   25035.38248007  .00000439  00000+0  14975-3 0  9999
2 43573  86.3931 264.6796 0002223  92.8807 267.2643 14.34219420342017
IRIDIUM 154             
1 43574U 18061F   25036.13090910  .00000237  00000+0  77583-4 0  9993
2 43574  86.3931 264.4755 0002044  84.8197 275.3232 14.34217452342168
IRIDIUM 163             
1 43575U 18061G   25035.62349995  .00000354  00000+0  11938-3 0  9998
2 43575  86.3930 264.6186 0001942  90.0023 270.1395 14.34218743342067
IRIDIUM 156             
1 43576U 18061H   25035.17949583  .00000471  00000+0  16099-3 0  9991
2 43576  86.3932 264.8112 0002377  91.5213 268.6255 14.34225943341999
IRIDIUM 164             
1 43577U 18061J   25035.57908373  .00000534  00000+0  18376-3 0  9998
2 43577  86.3931 264.6764 0002033  79.4308 280.7117 14.34225227342098
